ONEWEB-0578             
1 56067U 23043X   24157.88433752  .00000089  00000+0  18466-3 0  9999
2 56067  87.9299  31.5393 0001770  79.5904 280.5429 13.21824722 60304
ONEWEB-0579             
1 56068U 23043Y   24158.17766327  .00000018  00000+0  11732-4 0  9992
2 56068  87.9296  31.4788 0002174  90.6317 269.5066 13.21825700 61267
ONEWEB-0581             
1 56069U 23043Z   24157.87592697  .00000002  00000+0 -27802-4 0  9995
2 56069  87.9110  16.3740 0001741 103.7699 256.3625 13.16593280 61412
ONEWEB-0609             
1 56070U 23043AA  24157.92903189  .00000043  00000+0  80429-4 0  9993
2 56070  87.9052  46.7304 0001966  78.4644 281.6707 13.15546992 58975
ONEWEB-0613             
1 56071U 23043AB  24158.22851615  .00000142  00000+0  34424-3 0  9997
2 56071  87.9055  46.6665 0002226  84.7968 275.3416 13.15549306 59922
ONEWEB-0630             
1 56072U 23043AC  24158.22376666  .00000199  00000+0  49435-3 0  9996
2 56072  87.9051  46.6587 0002264  81.2595 278.8792 13.15548733 59919
ONEWEB-0632             
1 56073U 23043AD  24158.21900941  .00000221  00000+0  55308-3 0  9997
2 56073  87.9052  46.6784 0001845  92.4386 267.6955 13.15549267 59916
ONEWEB-0633             
1 56074U 23043AE  24157.45208949  .00000180  00000+0  44487-3 0  9992
2 56074  87.9048  46.8131 0002457  78.5033 281.6373 13.15547515 58883
